{"type": "FeatureCollection", "features": [ {"type": "Feature", "properties": {"norad_id": 66890, "name": "STARLINK-35885", "group": "last-30-days", "lat": 31.807591680551056, "lon": 28.922855285867744, "alt_km": 404.833663808683, "timestamp": "2025-12-27T08:36:17.079004+00:00", "meta": {"OBJECT_NAME": "STARLINK-35885", "OBJECT_ID": "2025-283N", "EPOCH": "2025-12-27T04:00:01.998720", "MEAN_MOTION": 15.53405996, "ECCENTRICITY": 0.0001101, "INCLINATION": 53.1601, "RA_OF_ASC_NODE": 2.1363, "ARG_OF_PERICENTER": 77.1116, "MEAN_ANOMALY": 331.0393, "EPHEMERIS_TYPE": 0, "CLASSIFICATION_TYPE": "U", "NORAD_CAT_ID": 66890, "ELEMENT_SET_NO": 999, "REV_AT_EPOCH": 474, "BSTAR": -0.036129, "MEAN_MOTION_DOT": -0.02071933, "MEAN_MOTION_DDOT": 0}, "tle": {"line1": "1 66890U 25283N   25361.16668980 -.02071933  00000+0 -36129-1 0  9998", "line2": "2 66890  53.1601   2.1363 0001101  77.1116 331.0393 15.53405996  4742"}}, "geometry": {"type": "Point", "coordinates": [28.922855285867744, 31.807591680551056]}}, {"type": "Feature", "properties": {"norad_id": 66891, "name": "STARLINK-35855", "group": "last-30-days", "lat": 33.15479892444877, "lon": 30.534009993002112, "alt_km": 404.5329660667667, "timestamp": "2025-12-27T08:36:17.079014+00:00", "meta": {"OBJECT_NAME": "STARLINK-35855", "OBJECT_ID": "2025-283P", "EPOCH": "2025-12-27T04:00:01.998720", "MEAN_MOTION": 15.53395358, "ECCENTRICITY": 0.0001248, "INCLINATION": 53.1602, "RA_OF_ASC_NODE": 2.132, "ARG_OF_PERICENTER": 77.8963, "MEAN_ANOMALY": 332.1741, "EPHEMERIS_TYPE": 0, "CLASSIFICATION_TYPE": "U", "NORAD_CAT_ID": 66891, "ELEMENT_SET_NO": 999, "REV_AT_EPOCH": 474, "BSTAR": -0.03584, "MEAN_MOTION_DOT": -0.02056558, "MEAN_MOTION_DDOT": 0}, "tle": {"line1": "1 66891U 25283P   25361.16668980 -.02056558  00000+0 -35840-1 0  9994", "line2": "2 66891  53.1602   2.1320 0001248  77.8963 332.1741 15.53395358  4745"}}, "geometry": {"type": "Point", "coordinates": [30.534009993002112, 33.15479892444877]}}, {"type": "Feature", "properties": {"norad_id": 66892, "name": "STARLINK-35883", "group": "last-30-days", "lat": 34.48498951250127, "lon": 32.20055802549766, "alt_km": 404.3965521443952, "timestamp": "2025-12-27T08:36:17.079024+00:00", "meta": {"OBJECT_NAME": "STARLINK-35883", "OBJECT_ID": "2025-283Q", "EPOCH": "2025-12-27T04:00:01.998720", "MEAN_MOTION": 15.53406533, "ECCENTRICITY": 0.0001185, "INCLINATION": 53.1605, "RA_OF_ASC_NODE": 2.1276, "ARG_OF_PERICENTER": 86.2921, "MEAN_ANOMALY": 325.6944, "EPHEMERIS_TYPE": 0, "CLASSIFICATION_TYPE": "U", "NORAD_CAT_ID": 66892, "ELEMENT_SET_NO": 999, "REV_AT_EPOCH": 468, "BSTAR": -0.036179, "MEAN_MOTION_DOT": -0.02074604, "MEAN_MOTION_DDOT": 0}, "tle": {"line1": "1 66892U 25283Q   25361.16668980 -.02074604  00000+0 -36179-1 0  9993", "line2": "2 66892  53.1605   2.1276 0001185  86.2921 325.6944 15.53406533  4680"}}, "geometry": {"type": "Point", "coordinates": [32.20055802549766, 34.48498951250127]}}, {"type": "Feature", "properties": {"norad_id": 66893, "name": "STARLINK-36033", "group": "last-30-days", "lat": 35.79010979730853, "lon": 33.91926486959491, "alt_km": 404.1950970094085, "timestamp": "2025-12-27T08:36:17.079034+00:00", "meta": {"OBJECT_NAME": "STARLINK-36033", "OBJECT_ID": "2025-283R", "EPOCH": "2025-12-27T04:00:01.998720", "MEAN_MOTION": 15.53401055, "ECCENTRICITY": 0.0001065, "INCLINATION": 53.1603, "RA_OF_ASC_NODE": 2.1232, "ARG_OF_PERICENTER": 80.2101, "MEAN_ANOMALY": 333.6946, "EPHEMERIS_TYPE": 0, "CLASSIFICATION_TYPE": "U", "NORAD_CAT_ID": 66893, "ELEMENT_SET_NO": 999, "REV_AT_EPOCH": 474, "BSTAR": -0.036002, "MEAN_MOTION_DOT": -0.02065091, "MEAN_MOTION_DDOT": 0}, "tle": {"line1": "1 66893U 25283R   25361.16668980 -.02065091  00000+0 -36002-1 0  9999", "line2": "2 66893  53.1603   2.1232 0001065  80.2101 333.6946 15.53401055  4744"}}, "geometry": {"type": "Point", "coordinates": [33.91926486959491, 35.79010979730853]}}, {"type": "Feature", "properties": {"norad_id": 66894, "name": "STARLINK-35718", "group": "last-30-days", "lat": 37.065944667954945, "lon": 35.69091191580306, "alt_km": 403.88462790443737, "timestamp": "2025-12-27T08:36:17.079044+00:00", "meta": {"OBJECT_NAME": "STARLINK-35718", "OBJECT_ID": "2025-283S", "EPOCH": "2025-12-27T04:00:01.998720", "MEAN_MOTION": 15.53388666, "ECCENTRICITY": 0.0001212, "INCLINATION": 53.1601, "RA_OF_ASC_NODE": 2.1203, "ARG_OF_PERICENTER": 78.2301, "MEAN_ANOMALY": 337.592, "EPHEMERIS_TYPE": 0, "CLASSIFICATION_TYPE": "U", "NORAD_CAT_ID": 66894, "ELEMENT_SET_NO": 999, "REV_AT_EPOCH": 474, "BSTAR": -0.035592, "MEAN_MOTION_DOT": -0.02043401, "MEAN_MOTION_DDOT": 0}, "tle": {"line1": "1 66894U 25283S   25361.16668980 -.02043401  00000+0 -35592-1 0  9994", "line2": "2 66894  53.1601   2.1203 0001212  78.2301 337.5920 15.53388666  4741"}}, "geometry": {"type": "Point", "coordinates": [35.69091191580306, 37.065944667954945]}}, {"type": "Feature", "properties": {"norad_id": 66895, "name": "STARLINK-35971", "group": "last-30-days", "lat": 39.54063236604603, "lon": 39.42550277054191, "alt_km": 403.571911850986, "timestamp": "2025-12-27T08:36:17.079054+00:00", "meta": {"OBJECT_NAME": "STARLINK-35971", "OBJECT_ID": "2025-283T", "EPOCH": "2025-12-27T04:00:01.998720", "MEAN_MOTION": 15.53398279, "ECCENTRICITY": 0.0001138, "INCLINATION": 53.1595, "RA_OF_ASC_NODE": 2.1102, "ARG_OF_PERICENTER": 88.5853, "MEAN_ANOMALY": 331.0693, "EPHEMERIS_TYPE": 0, "CLASSIFICATION_TYPE": "U", "NORAD_CAT_ID": 66895, "ELEMENT_SET_NO": 999, "REV_AT_EPOCH": 474, "BSTAR": -0.03588, "MEAN_MOTION_DOT": -0.02058747, "MEAN_MOTION_DDOT": 0}, "tle": {"line1": "1 66895U 25283T   25361.16668980 -.02058747  00000+0 -35880-1 0  9994", "line2": "2 66895  53.1595   2.1102 0001138  88.5853 331.0693 15.53398279  4742"}}, "geometry": {"type": "Point", "coordinates": [39.42550277054191, 39.54063236604603]}}, {"type": "Feature", "properties": {"norad_id": 66896, "name": "STARLINK-35791", "group": "last-30-days", "lat": 38.31916628661264, "lon": 37.52704620035764, "alt_km": 403.7390643499657, "timestamp": "2025-12-27T08:36:17.079069+00:00", "meta": {"OBJECT_NAME": "STARLINK-35791", "OBJECT_ID": "2025-283U", "EPOCH": "2025-12-27T04:00:01.998720", "MEAN_MOTION": 15.53395705, "ECCENTRICITY": 0.0001046, "INCLINATION": 53.1599, "RA_OF_ASC_NODE": 2.1147, "ARG_OF_PERICENTER": 72.7624, "MEAN_ANOMALY": 344.9735, "EPHEMERIS_TYPE": 0, "CLASSIFICATION_TYPE": "U", "NORAD_CAT_ID": 66896, "ELEMENT_SET_NO": 999, "REV_AT_EPOCH": 474, "BSTAR": -0.035756, "MEAN_MOTION_DOT": -0.0205216, "MEAN_MOTION_DDOT": 0}, "tle": {"line1": "1 66896U 25283U   25361.16668980 -.02052160  00000+0 -35756-1 0  9990", "line2": "2 66896  53.1599   2.1147 0001046  72.7624 344.9735 15.53395705  4746"}}, "geometry": {"type": "Point", "coordinates": [37.52704620035764, 38.31916628661264]}}, {"type": "Feature", "properties": {"norad_id": 66897, "name": "STARLINK-36079", "group": "last-30-days", "lat": 40.7307931272747, "lon": 41.39273168937738, "alt_km": 403.46813710433435, "timestamp": "2025-12-27T08:36:17.079081+00:00", "meta": {"OBJECT_NAME": "STARLINK-36079", "OBJECT_ID": "2025-283V", "EPOCH": "2025-12-27T04:00:01.998720", "MEAN_MOTION": 15.53393837, "ECCENTRICITY": 9.46e-05, "INCLINATION": 53.1597, "RA_OF_ASC_NODE": 2.1068, "ARG_OF_PERICENTER": 87.5563, "MEAN_ANOMALY": 334.0153, "EPHEMERIS_TYPE": 0, "CLASSIFICATION_TYPE": "U", "NORAD_CAT_ID": 66897, "ELEMENT_SET_NO": 999, "REV_AT_EPOCH": 474, "BSTAR": -0.03572, "MEAN_MOTION_DOT": -0.02050104, "MEAN_MOTION_DDOT": 0}, "tle": {"line1": "1 66897U 25283V   25361.16668980 -.02050104  00000+0 -35720-1 0  9998", "line2": "2 66897  53.1597   2.1068 0000946  87.5563 334.0153 15.53393837  4749"}}, "geometry": {"type": "Point", "coordinates": [41.39273168937738, 40.7307931272747]}}, {"type": "Feature", "properties": {"norad_id": 66898, "name": "STARLINK-36065", "group": "last-30-days", "lat": 41.88712191330259, "lon": 43.43145767781305, "alt_km": 403.1863193189347, "timestamp": "2025-12-27T08:36:17.079095+00:00", "meta": {"OBJECT_NAME": "STARLINK-36065", "OBJECT_ID": "2025-283W", "EPOCH": "2025-12-27T04:00:01.998720", "MEAN_MOTION": 15.53396308, "ECCENTRICITY": 0.000104, "INCLINATION": 53.1598, "RA_OF_ASC_NODE": 2.1024, "ARG_OF_PERICENTER": 78.7754, "MEAN_ANOMALY": 344.713, "EPHEMERIS_TYPE": 0, "CLASSIFICATION_TYPE": "U", "NORAD_CAT_ID": 66898, "ELEMENT_SET_NO": 999, "REV_AT_EPOCH": 474, "BSTAR": -0.03581, "MEAN_MOTION_DOT": -0.02054972, "MEAN_MOTION_DDOT": 0}, "tle": {"line1": "1 66898U 25283W   25361.16668980 -.02054972  00000+0 -35810-1 0  9996", "line2": "2 66898  53.1598   2.1024 0001040  78.7754 344.7130 15.53396308  4742"}}, "geometry": {"type": "Point", "coordinates": [43.43145767781305, 41.88712191330259]}}, {"type": "Feature", "properties": {"norad_id": 66899, "name": "STARLINK-36064", "group": "last-30-days", "lat": 43.00387659136454, "lon": 45.541351454610485, "alt_km": 402.88354557095136, "timestamp": "2025-12-27T08:36:17.079107+00:00", "meta": {"OBJECT_NAME": "STARLINK-36064", "OBJECT_ID": "2025-283X", "EPOCH": "2025-12-27T04:00:01.998720", "MEAN_MOTION": 15.53393223, "ECCENTRICITY": 0.0001226, "INCLINATION": 53.1598, "RA_OF_ASC_NODE": 2.0989, "ARG_OF_PERICENTER": 77.5671, "MEAN_ANOMALY": 347.8382, "EPHEMERIS_TYPE": 0, "CLASSIFICATION_TYPE": "U", "NORAD_CAT_ID": 66899, "ELEMENT_SET_NO": 999, "REV_AT_EPOCH": 468, "BSTAR": -0.035733, "MEAN_MOTION_DOT": -0.02050918, "MEAN_MOTION_DDOT": 0}, "tle": {"line1": "1 66899U 25283X   25361.16668980 -.02050918  00000+0 -35733-1 0  9997", "line2": "2 66899  53.1598   2.0989 0001226  77.5671 347.8382 15.53393223  4682"}}, "geometry": {"type": "Point", "coordinates": [45.541351454610485, 43.00387659136454]}}]}